{
  "type": "FeatureCollection",
  "features": [
    {
      "type": "Feature",
      "properties": {
        "id": "zone_2",
        "type": "no_go",
        "enabled": true
      },
      "geometry": {
        "type": "Polygon",
        "coordinates": [
          [
            [
              -64.10457015037538,
              -31.429578438682448
            ],
            [
              -64.10440921783449,
              -31.42972715734393
            ],
            [
              -64.10468548536302,
              -31.429743173185724
            ],
            [
              -64.10457015037538,
              -31.429578438682448
            ]
          ]
        ]
      }
    },
    {
      "type": "Feature",
      "properties": {
        "id": "zone_3",
        "type": "no_go",
        "enabled": true
      },
      "geometry": {
        "type": "Polygon",
        "coordinates": [
          [
            [
              -64.10428851842882,
              -31.429663093949458
            ],
            [
              -64.10455405712129,
              -31.429464039551554
            ],
            [
              -64.10480350255968,
              -31.42968597373822
            ],
            [
              -64.10483300685884,
              -31.42989417955944
            ],
            [
              -64.1043394804001,
              -31.429887315638616
            ],
            [
              -64.1043394804001,
              -31.429962818739842
            ],
            [
              -64.104862511158,
              -31.429967394683377
            ],
            [
              -64.10490810871126,
              -31.429628774255818
            ],
            [
              -64.10454601049425,
              -31.42937709611874
            ],
            [
              -64.1042670607567,
              -31.429599030511184
            ],
            [
              -64.10428851842882,
              -31.429663093949458
            ]
          ]
        ]
      }
    }
  ]
}
